UNKNOWN                 
1 87204U          26062.55163021  .00002566  00000+0  10039-2 0  9993
2 87204  98.5330 286.7563 0046370  86.0738 274.5744 14.29774592636985
UNKNOWN                 
1 87211U          26055.81893811  .00003419  00000+0  93562-3 0  9990
2 87211  99.0886  65.9782 0051590 299.6495 186.2543 14.47142657718480
UNKNOWN                 
1 87214U          26061.47965627  .00001769  00000+0  16007-2 0  9991
2 87214 100.3330  72.9871 0068963  50.2422 310.4777 13.84252622611276
UNKNOWN                 
1 87237U          26062.64447005  .00000373  00000+0  31359-3 0  9999
2 87237  99.2428 122.9123 0103884  66.0612  85.0544 13.91836471623019
UNKNOWN                 
1 87239U          26061.29043224  .00012193  00000+0  28932-2 0  9991
2 87239  82.8753  15.2057 0019592 136.7236 223.5506 14.53766017639425
UNKNOWN                 
1 87245U          26062.35833037  .00004151  00000+0  86966-3 0  9992
2 87245  65.6456 192.0662 0425405  80.7492 315.3707 14.16673893625621
UNKNOWN                 
1 87271U          26062.28246774  .00019606  00000+0  34798-2 0  9995
2 87271  65.7561  19.6125 0420224  30.9386 331.5740 14.22876485623825
UNKNOWN                 
1 87280U          26060.94750553  .00000307  00000+0  59571-3 0  9996
2 87280  64.6158  39.4575 0128378 245.8443 112.9129 13.48637859544539
UNKNOWN                 
1 87293U          26062.03016102  .00006016  00000+0  11460-2 0  9994
2 87293  65.8962 291.6039 0427596 316.3933  40.4079 14.19592246625389
UNKNOWN                 
1 87300U          26061.42900189  .00001865  00000+0  13048-2 0  9993
2 87300 100.0987  56.9516 0026566  80.1947 280.2212 13.99772840624268
UNKNOWN                 
1 87304U          26055.06946452  .00002205  00000+0  32596-3 0  9992
2 87304  74.0188 177.3609 0016746 130.9964 229.2662 14.75775931657298
UNKNOWN                 
1 87320U          26062.60772985  .00001369  00000+0  86995-3 0  9998
2 87320  66.5908 251.3198 0420980   2.9412 357.3983 13.70451952604821
UNKNOWN                 
1 87334U          26062.61987120  .00019567  00000+0  10803-1 0  9995
2 87334  90.0062 271.7008 0067348 343.6732  16.2282 14.10178845398038
UNKNOWN                 
1 87335U          26062.54569998  .00021125  00000+0  11474-1 0  9995
2 87335  89.9947 267.8868 0085805 324.0485  35.4945 14.10340147398354
UNKNOWN                 
1 87405U          26062.53025644  .00003107  00000+0  21939-2 0  9995
2 87405  82.7536 356.3623 0060056  95.6642 265.1378 13.96757705622433
UNKNOWN                 
1 87426U          26061.58212204  .00005130  00000+0  19434-2 0  9997
2 87426  65.7822 117.9152 0070372 258.2435 253.7615 14.30578848634003
UNKNOWN                 
1 87448U          26062.44540459  .00001518  00000+0  12352-2 0  9991
2 87448 100.4516 283.9416 0064081 355.1024   4.9496 13.90865565620459
